Id,map_id,Market,address,description,pic,link,Icon,lat,lng,anim,title,Infoopen,category,approved,retina,type,did,sticky,other_data
0,13,New York,"221 Smith St, Brooklyn, NY 11201, USA",Example of venue text,https://thirstymag.com/wp-content/uploads/2020/02/national-margarita-day-new-york.jpg,,,40.6842838,-73.9919281,,leyenda,yes,,1,1,,,,
1,13,New York,"4 Bleecker St, New York, NY 10012, USA",Example of venue text,https://thirstymag.com/wp-content/uploads/2020/02/national-margarita-day-new-york.jpg,,,40.7252328,-73.9927354,,ghost donkey,yes,,1,1,,,,
2,13,New York,"197 2nd Ave, New York, NY 10003, USA",Example of venue text,https://thirstymag.com/wp-content/uploads/2020/02/national-margarita-day-new-york.jpg,,,40.7313711,-73.9860217,,black emporer,yes,,1,1,,,,
3,13,New York,"18 Spring St, New York, NY 10012, USA",Example of venue text,https://thirstymag.com/wp-content/uploads/2020/02/national-margarita-day-new-york.jpg,,,40.7213105,-73.9950142,,mothers ruin,yes,,1,1,,,,
4,13,New York,"105 1st Avenue, New York, NY 10003, USA",Example of venue text,https://thirstymag.com/wp-content/uploads/2020/02/national-margarita-day-new-york.jpg,,,40.7267784,-73.9862398,,mister paradise,yes,,1,1,,,,
5,13,New York,"94 Avenue A, New York, NY 10009, USA",Example of venue text,https://thirstymag.com/wp-content/uploads/2020/02/national-margarita-day-new-york.jpg,,,40.7254892,-73.9836739,,august laura,yes,,1,1,,,,
6,13,New York,"128 W Houston St, New York, NY 10012, USA",Example of venue text,https://thirstymag.com/wp-content/uploads/2020/02/national-margarita-day-new-york.jpg,,,40.72787,-74.001067,,bar moga,yes,,1,1,,,,
7,13,New York,"190 West 4th Street, New York, NY 10014, USA",Example of venue text,https://thirstymag.com/wp-content/uploads/2020/02/national-margarita-day-new-york.jpg,,,40.7326969,-74.0022796,,the spaniard,yes,,1,1,,,,
8,13,New York,"123 Lexington Ave, New York, NY 10016, USA",Example of venue text,https://thirstymag.com/wp-content/uploads/2020/02/national-margarita-day-new-york.jpg,,,40.7427536,-73.9820674,,broken shaker,yes,,1,1,,,,
9,13,New York,"2122 Beekman Pl, Brooklyn, NY 11225, USA",Example of venue text,https://thirstymag.com/wp-content/uploads/2020/02/national-margarita-day-new-york.jpg,,,40.6599147,-73.9608634,,erv's on beekman,yes,,1,1,,,,
10,13,Miami,"2727 Indian Creek Dr, Miami Beach, FL 33140, USA",Example of venue text,https://thirstymag.com/wp-content/uploads/2020/02/national-margarita-day-new-york.jpg,,,25.8045687,-80.1264365,,27 restaurant,yes,,1,1,,,,
11,13,Miami,"437 SW 2nd St, Miami, FL 33130, USA",Example of venue text,https://thirstymag.com/wp-content/uploads/2020/02/national-margarita-day-new-york.jpg,,,25.7721277,-80.2017376,,casa florida,yes,,1,1,,,,
12,13,Miami,"3456 N Miami Ave, Miami, FL 33127, USA",Example of venue text,https://thirstymag.com/wp-content/uploads/2020/02/national-margarita-day-new-york.jpg,,,25.8092934,-80.195584,,the sylvester,yes,,1,1,,,,
13,13,Miami,"971 SW 8th St, Miami, FL 33130, USA",Example of venue text,https://thirstymag.com/wp-content/uploads/2020/02/national-margarita-day-new-york.jpg,,,25.7662659,-80.2104537,,cafe la trova,yes,,1,1,,,,
14,13,Miami,"1690 Collins Ave, Miami Beach, FL 33139, USA",Example of venue text,https://thirstymag.com/wp-content/uploads/2020/02/national-margarita-day-new-york.jpg,,,25.7921705,-80.1300788,,the regent cocktail club,yes,,1,1,,,,
15,13,Miami,"75 SE 6th St, Miami, FL 33131, USA",Example of venue text,https://thirstymag.com/wp-content/uploads/2020/02/national-margarita-day-new-york.jpg,,,25.7684072,-80.1910373,,better days,yes,,1,1,,,,
16,13,Miami,"251 NW 25th St, Miami, FL 33127, USA",Example of venue text,https://thirstymag.com/wp-content/uploads/2020/02/national-margarita-day-new-york.jpg,,,25.8008908,-80.2002122,,kyu,yes,,1,1,,,,
17,13,Miami,"237 20th St ste b, Miami Beach, FL 33139, USA",Example of venue text,https://thirstymag.com/wp-content/uploads/2020/02/national-margarita-day-new-york.jpg,,,25.7959836,-80.1297409,,sweet liberty,yes,,1,1,,,,
18,13,Miami,"2637 N Miami Ave, Miami, FL 33127, USA",Example of venue text,https://thirstymag.com/wp-content/uploads/2020/02/national-margarita-day-new-york.jpg,,,25.802335,-80.194733,,beaker & gray,yes,,1,1,,,,
19,13,Miami,"500 Brickell Ave ste d, Miami, FL 33131, USA",Example of venue text,https://thirstymag.com/wp-content/uploads/2020/02/national-margarita-day-new-york.jpg,,,25.7684072,-80.1910373,,baby jane,yes,,1,1,,,,
20,13,Miami,"2727 Indian Creek Dr, Miami Beach, FL 33140, USA",Example of venue text,https://thirstymag.com/wp-content/uploads/2020/02/national-margarita-day-new-york.jpg,,,25.8045687,-80.1264365,,broken shaker,yes,,1,1,,,,
21,13,Miami,"207 NE 1st St, Miami, FL 33132, USA",Example of venue text,https://thirstymag.com/wp-content/uploads/2020/02/national-margarita-day-new-york.jpg,,,25.7753875,-80.1900783,,mama tried,yes,,1,1,,,,
22,13,Tampa,"205 Westshore Plaza, Tampa, FL 33609, USA",Example of venue text,https://thirstymag.com/wp-content/uploads/2020/02/national-margarita-day-new-york.jpg,,,27.9464828,-82.5265786,,besito mexican,yes,,1,1,,,,
23,13,Tampa,"365 Main St, Dunedin, FL 34698, USA",Example of venue text,https://thirstymag.com/wp-content/uploads/2020/02/national-margarita-day-new-york.jpg,,,28.0115872,-82.7882815,,casa tina,yes,,1,1,,,,
24,13,Tampa,"911 Central Ave, St. Petersburg, FL 33705, USA",Example of venue text,https://thirstymag.com/wp-content/uploads/2020/02/national-margarita-day-new-york.jpg,,,27.771326,-82.6471811,,buya ramen,yes,,1,1,,,,
25,13,Tampa,"1704 E 7th Ave, Tampa, FL 33605, USA",Example of venue text,https://thirstymag.com/wp-content/uploads/2020/02/national-margarita-day-new-york.jpg,,,27.960501,-82.4402067,,big easy bar,yes,,1,1,,,,
26,13,Tampa,"1327 E 7th Ave, Tampa, FL 33605, USA",Example of venue text,https://thirstymag.com/wp-content/uploads/2020/02/national-margarita-day-new-york.jpg,,,27.9600238,-82.4444005,,the bricks,yes,,1,1,,,,
27,13,Tampa,"633 N Franklin St, Tampa, FL 33602, USA",Example of venue text,https://thirstymag.com/wp-content/uploads/2020/02/national-margarita-day-new-york.jpg,,,27.9495214,-82.458541,,cws gin joint,yes,,1,1,,,,
28,13,Texas,"1878 Sylvan Ave e150, Dallas, TX 75208, USA",Example of venue text,https://thirstymag.com/wp-content/uploads/2020/02/national-margarita-day-new-york.jpg,,,32.7691775,-96.8355212,,jettison,yes,,1,1,,,,
29,13,Texas,"2010 Greenville Ave, Dallas, TX 75206, USA",Example of venue text,https://thirstymag.com/wp-content/uploads/2020/02/national-margarita-day-new-york.jpg,,,32.8142496,-96.7699138,,gung ho,yes,,1,1,,,,
30,13,Texas,"2008 Greenville Ave, Dallas, TX 75206, USA",Example of venue text,https://thirstymag.com/wp-content/uploads/2020/02/national-margarita-day-new-york.jpg,,,32.8141897,-96.7700374,,hg sply,yes,,1,1,,,,
31,13,Texas,"2614 Boll St, Dallas, TX 75204, USA",Example of venue text,https://thirstymag.com/wp-content/uploads/2020/02/national-margarita-day-new-york.jpg,,,32.7979763,-96.8019654,,bowen house,yes,,1,1,,,,
32,13,Texas,"3090 Oliver St ste b 110, Dallas, TX 75205, USA",Example of venue text,https://thirstymag.com/wp-content/uploads/2020/02/national-margarita-day-new-york.jpg,,,32.8195226,-96.7890829,,hero,yes,,1,1,,,,
33,13,Texas,"604 N Tyler St, Dallas, TX 75208, USA",Example of venue text,https://thirstymag.com/wp-content/uploads/2020/02/national-margarita-day-new-york.jpg,,,32.7496496,-96.8372355,,tiny victories,yes,,1,1,,,,
34,13,Texas,"1617 Hi Line Dr, Dallas, TX 75207, USA",Example of venue text,https://thirstymag.com/wp-content/uploads/2020/02/national-margarita-day-new-york.jpg,,,32.7952162,-96.8184364,,wheelhouse,yes,,1,1,,,,
35,13,Texas,"605 Brazos St, Austin, TX 78701, USA",Example of venue text,https://thirstymag.com/wp-content/uploads/2020/02/national-margarita-day-new-york.jpg,,,30.2681716,-97.7410422,,firehouse lounge,yes,,1,1,,,,
36,13,Texas,"307 W 5th St, Austin, TX 78701, USA",Example of venue text,https://thirstymag.com/wp-content/uploads/2020/02/national-margarita-day-new-york.jpg,,,30.2676574,-97.7462962,,roosevelt room,yes,,1,1,,,,
37,13,Texas,"3100 Fannin St #115, Houston, TX 77004, USA",Example of venue text,https://thirstymag.com/wp-content/uploads/2020/02/national-margarita-day-new-york.jpg,,,29.7415403,-95.3761659,,two headed dog,yes,,1,1,,,,
38,13,Texas,"5802 Fulton St, Houston, TX 77009, USA",Example of venue text,https://thirstymag.com/wp-content/uploads/2020/02/national-margarita-day-new-york.jpg,,,29.8118875,-95.3695423,,monkey's tail,yes,,1,1,,,,
39,13,Texas,"1010 Banks St, Houston, TX 77006, USA",Example of venue text,https://thirstymag.com/wp-content/uploads/2020/02/national-margarita-day-new-york.jpg,,,29.7303325,-95.3916852,,grand prize,yes,,1,1,,,,
40,13,Texas,"1919 Greenville Ave, Dallas, TX 75206, USA",Example of venue text,https://thirstymag.com/wp-content/uploads/2020/02/national-margarita-day-new-york.jpg,,,32.8141255,-96.7704645,,alamo club,yes,,1,1,,,,
41,13,Texas,"1530 Main St, Dallas, TX 75201, USA",Example of venue text,https://thirstymag.com/wp-content/uploads/2020/02/national-margarita-day-new-york.jpg,,,32.7807089,-96.7984434,,midnight rambler,yes,,1,1,,,,
42,13,Texas,"2714 Elm St, Dallas, TX 75226, USA",Example of venue text,https://thirstymag.com/wp-content/uploads/2020/02/national-margarita-day-new-york.jpg,,,32.784475,-96.784087,,armoury de,yes,,1,1,,,,
43,13,Texas,"1914 Greenville Ave, Dallas, TX 75206, USA",Example of venue text,https://thirstymag.com/wp-content/uploads/2020/02/national-margarita-day-new-york.jpg,,,32.8133152,-96.7700009,,leela's,yes,,1,1,,,,
44,13,Texas,"1915 Greenville Ave, Dallas, TX 75206, USA",Example of venue text,https://thirstymag.com/wp-content/uploads/2020/02/national-margarita-day-new-york.jpg,,,32.8139371,-96.7704949,,abv,yes,,1,1,,,,
45,13,Texas,"5855 Maple Ave #190, Dallas, TX 75235, USA",Example of venue text,https://thirstymag.com/wp-content/uploads/2020/02/national-margarita-day-new-york.jpg,,,32.8222142,-96.8381986,,maple landing,yes,,1,1,,,,
46,13,Texas,"400 Crescent Ct, Dallas, TX 75201, USA",Example of venue text,https://thirstymag.com/wp-content/uploads/2020/02/national-margarita-day-new-york.jpg,,,32.7945621,-96.8044675,,nobu,yes,,1,1,,,,
47,13,Texas,"9028 Garland Rd, Dallas, TX 75218, USA",Example of venue text,https://thirstymag.com/wp-content/uploads/2020/02/national-margarita-day-new-york.jpg,,,32.8276979,-96.7088693,,lounge here,yes,,1,1,,,,
48,13,Texas,"1601 Main St, Dallas, TX 75201, USA",Example of venue text,https://thirstymag.com/wp-content/uploads/2020/02/national-margarita-day-new-york.jpg,,,32.7814061,-96.798312,,tower club,yes,,1,1,,,,
49,13,SoCal,"1607 Pacific Ave, Venice, CA 90291, USA",Example of venue text,https://thirstymag.com/wp-content/uploads/2020/02/national-margarita-day-new-york.jpg,,,33.9874504,-118.4723025,,gran blanco,yes,,1,1,,,,
50,13,SoCal,"1263 W Temple St, Los Angeles, CA 90026, USA",Example of venue text,https://thirstymag.com/wp-content/uploads/2020/02/national-margarita-day-new-york.jpg,,,34.0663995,-118.2541135,,thunderbolt,yes,,1,1,,,,
51,13,SoCal,"1927 Hillhurst Ave, Los Angeles, CA 90027, USA",Example of venue text,https://thirstymag.com/wp-content/uploads/2020/02/national-margarita-day-new-york.jpg,,,34.1062223,-118.2877828,,big bar,yes,,1,1,,,,
52,13,SoCal,"9010 Melrose Ave, West Hollywood, CA 90069, USA",Example of venue text,https://thirstymag.com/wp-content/uploads/2020/02/national-margarita-day-new-york.jpg,,,34.0805544,-118.3882164,,olivetta,yes,,1,1,,,,
53,13,SoCal,"416 W 8th St, Los Angeles, CA 90014, USA",Example of venue text,https://thirstymag.com/wp-content/uploads/2020/02/national-margarita-day-new-york.jpg,,,34.0448071,-118.2565653,,broken shaker,yes,,1,1,,,,
54,13,SoCal,"7465 Melrose Ave, Los Angeles, CA 90046, USA",Example of venue text,https://thirstymag.com/wp-content/uploads/2020/02/national-margarita-day-new-york.jpg,,,34.0838389,-118.3527123,,melrose umbrella co,yes,,1,1,,,,
55,13,SoCal,"12477 Washington Blvd, Los Angeles, CA 90066, USA",Example of venue text,https://thirstymag.com/wp-content/uploads/2020/02/national-margarita-day-new-york.jpg,,,33.9970245,-118.4306542,,corner door,yes,,1,1,,,,
56,13,SoCal,"107 E 6th St, Los Angeles, CA 90014, USA",Example of venue text,https://thirstymag.com/wp-content/uploads/2020/02/national-margarita-day-new-york.jpg,,,34.045111,-118.249511,,las perlas,yes,,1,1,,,,
57,13,SoCal,"1228 Sunset Blvd, Los Angeles, CA 90026, USA",Example of venue text,https://thirstymag.com/wp-content/uploads/2020/02/national-margarita-day-new-york.jpg,,,34.069022,-118.2507193,,bar henry,yes,,1,1,,,,
58,13,SoCal,"5221 Hollywood Blvd, Los Angeles, CA 90027, USA",Example of venue text,https://thirstymag.com/wp-content/uploads/2020/02/national-margarita-day-new-york.jpg,,,34.1019041,-118.3042997,,harvard & stone,yes,,1,1,,,,
59,13,SoCal,"5635 N Figueroa St, Los Angeles, CA 90042, USA",Example of venue text,https://thirstymag.com/wp-content/uploads/2020/02/national-margarita-day-new-york.jpg,,,34.10962,-118.19328,,good housekeeping,yes,,1,1,,,,
60,13,SoCal,"1540 Sunset Blvd, Los Angeles, CA 90026, USA",Example of venue text,https://thirstymag.com/wp-content/uploads/2020/02/national-margarita-day-new-york.jpg,,,34.0762828,-118.2567722,,lowboy,yes,,1,1,,,,
61,13,SoCal,"7360 Beverly Blvd, Los Angeles, CA 90036, USA",Example of venue text,https://thirstymag.com/wp-content/uploads/2020/02/national-margarita-day-new-york.jpg,,,34.0759024,-118.3503522,,petty cash,yes,,1,1,,,,
62,13,SoCal,"1115 E Wardlow Rd, Long Beach, CA 90807, USA",Example of venue text,https://thirstymag.com/wp-content/uploads/2020/02/national-margarita-day-new-york.jpg,,,33.8191142,-118.1780234,,roxannes,yes,,1,1,,,,
63,13,SoCal,"1117 E Wardlow Rd, Long Beach, CA 90807, USA",Example of venue text,https://thirstymag.com/wp-content/uploads/2020/02/national-margarita-day-new-york.jpg,,,33.819124,-118.1780956,,the exhibition room,yes,,1,1,,,,
64,13,SoCal,"136 E Anaheim St, Long Beach, CA 90813, USA",Example of venue text,https://thirstymag.com/wp-content/uploads/2020/02/national-margarita-day-new-york.jpg,,,33.78241,-118.1917222,,the grasshopper,yes,,1,1,,,,
65,13,SoCal,"820 W 19th St, Costa Mesa, CA 92627, USA",Example of venue text,https://thirstymag.com/wp-content/uploads/2020/02/national-margarita-day-new-york.jpg,,,33.6435623,-117.9328865,,casa,yes,,1,1,,,,
66,13,SoCal,"891 Baker St, Costa Mesa, CA 92626, USA",Example of venue text,https://thirstymag.com/wp-content/uploads/2020/02/national-margarita-day-new-york.jpg,,,33.6796832,-117.8940985,,the kitsch bar,yes,,1,1,,,,
67,13,SoCal,"1816 1/2 N Vermont Ave, Los Angeles, CA 90027, USA",Example of venue text,https://thirstymag.com/wp-content/uploads/2020/02/national-margarita-day-new-york.jpg,,,34.1040603,-118.2915836,,pinky⊙s,yes,,1,1,,,,
68,13,SoCal,"3250 Adams Ave, San Diego, CA 92116, USA",Example of venue text,https://thirstymag.com/wp-content/uploads/2020/02/national-margarita-day-new-york.jpg,,,32.7636666,-117.1236488,,ska bar,yes,,1,1,,,,
69,13,SoCal,"1503 30th St, San Diego, CA 92102, USA",Example of venue text,https://thirstymag.com/wp-content/uploads/2020/02/national-margarita-day-new-york.jpg,,,32.7214638,-117.1300141,,kindred,yes,,1,1,,,,
70,13,SoCal,"1250 Prospect St, La Jolla, CA 92037, USA",Example of venue text,https://thirstymag.com/wp-content/uploads/2020/02/national-margarita-day-new-york.jpg,,,32.8494483,-117.271724,,george⊙s at the cove,yes,,1,1,,,,
71,13,SoCal,"4612 Park Blvd, San Diego, CA 92116, USA",Example of venue text,https://thirstymag.com/wp-content/uploads/2020/02/national-margarita-day-new-york.jpg,,,32.7613468,-117.1464057,,park & rec,yes,,1,1,,,,
72,13,SoCal,"3926 30th St, San Diego, CA 92104, USA",Example of venue text,https://thirstymag.com/wp-content/uploads/2020/02/national-margarita-day-new-york.jpg,,,32.7490327,-117.1303769,,coin op,yes,,1,1,,,,
73,13,SoCal,"2414 San Diego Ave, San Diego, CA 92110, USA",Example of venue text,https://thirstymag.com/wp-content/uploads/2020/02/national-margarita-day-new-york.jpg,,,32.7517603,-117.1933573,,tahona,yes,,1,1,,,,
74,13,SoCal,"748 Fifth Ave, San Diego, CA 92101, USA",Example of venue text,https://thirstymag.com/wp-content/uploads/2020/02/national-margarita-day-new-york.jpg,,,32.7130772,-117.1604245,,metl,yes,,1,1,,,,
75,13,SoCal,"2725 State St, Carlsbad, CA 92008, USA",Example of venue text,https://thirstymag.com/wp-content/uploads/2020/02/national-margarita-day-new-york.jpg,,,33.1620501,-117.3510432,,campfire,yes,,1,1,,,,
76,13,Chicago,"948 N Western Ave, Chicago, IL 60622, USA",Example of venue text,https://thirstymag.com/wp-content/uploads/2020/02/national-margarita-day-new-york.jpg,,,41.8989798,-87.6872884,,sportsman⊙s,yes,,1,1,,,,
77,13,Chicago,"1270 N Milwaukee Ave, Chicago, IL 60622, USA",Example of venue text,https://thirstymag.com/wp-content/uploads/2020/02/national-margarita-day-new-york.jpg,,,41.904696,-87.669038,,neon wilderness,yes,,1,1,,,,
78,13,Chicago,"226 W Chicago Ave, Chicago, IL 60654, USA",Example of venue text,https://thirstymag.com/wp-content/uploads/2020/02/national-margarita-day-new-york.jpg,,,41.8967914,-87.6353086,,good measure,yes,,1,1,,,,
79,13,Chicago,"11 W Illinois St, Chicago, IL 60654, USA",Example of venue text,https://thirstymag.com/wp-content/uploads/2020/02/national-margarita-day-new-york.jpg,,,41.890592,-87.6284866,,flora fauna,yes,,1,1,,,,
80,13,Chicago,"2528 N California Ave, Chicago, IL 60647, USA",Example of venue text,https://thirstymag.com/wp-content/uploads/2020/02/national-margarita-day-new-york.jpg,,,41.9275525,-87.6977823,,good fortune,yes,,1,1,,,,
81,13,Chicago,"565 W Randolph St, Chicago, IL 60661, USA",Example of venue text,https://thirstymag.com/wp-content/uploads/2020/02/national-margarita-day-new-york.jpg,,,41.8842523,-87.6424535,,proxi,yes,,1,1,,,,
82,13,Chicago,"948 W Fulton Market, Chicago, IL 60607, USA",Example of venue text,https://thirstymag.com/wp-content/uploads/2020/02/national-margarita-day-new-york.jpg,,,41.8869979,-87.6518247,,blind barber,yes,,1,1,,,,
83,13,Chicago,"694 N Milwaukee Ave, Chicago, IL 60642, USA",Example of venue text,https://thirstymag.com/wp-content/uploads/2020/02/national-margarita-day-new-york.jpg,,,41.894203,-87.6525445,,dandy crown,yes,,1,1,,,,
84,13,Chicago,"201 E Delaware Pl, Chicago, IL 60611, USA",Example of venue text,https://thirstymag.com/wp-content/uploads/2020/02/national-margarita-day-new-york.jpg,,,41.8990174,-87.6216846,,drumbar,yes,,1,1,,,,
85,13,Chicago,"3137 W Logan Blvd, Chicago, IL 60647, USA",Example of venue text,https://thirstymag.com/wp-content/uploads/2020/02/national-margarita-day-new-york.jpg,,,41.927701,-87.7063979,,merchant,yes,,1,1,,,,
86,13,Chicago,"1726 S Racine Ave, Chicago, IL 60608, USA",Example of venue text,https://thirstymag.com/wp-content/uploads/2020/02/national-margarita-day-new-york.jpg,,,41.858076,-87.656668,,la luna,yes,,1,1,,,,
87,13,Chicago,"2545 N Kedzie Ave, Chicago, IL 60647, USA",Example of venue text,https://thirstymag.com/wp-content/uploads/2020/02/national-margarita-day-new-york.jpg,,,41.9277119,-87.7067453,,young american,yes,,1,1,,,,
88,13,Chicago,"2914 N Clark St, Chicago, IL 60657, USA",Example of venue text,https://thirstymag.com/wp-content/uploads/2020/02/national-margarita-day-new-york.jpg,,,41.9353653,-87.647127,,el nuevo,yes,,1,1,,,,
89,13,Chicago,"2800 W Logan Blvd, Chicago, IL 60647, USA",Example of venue text,https://thirstymag.com/wp-content/uploads/2020/02/national-margarita-day-new-york.jpg,,,41.9289131,-87.6977361,,mi tocaya,yes,,1,1,,,,
90,13,Chicago,"660 W Lake St, Chicago, IL 60661, USA",Example of venue text,https://thirstymag.com/wp-content/uploads/2020/02/national-margarita-day-new-york.jpg,,,41.8858299,-87.6451549,,moneygun,yes,,1,1,,,,
91,13,Chicago,"1802 S Allport St, Chicago, IL 60608, USA",Example of venue text,https://thirstymag.com/wp-content/uploads/2020/02/national-margarita-day-new-york.jpg,,,41.8577429,-87.6578894,,green room,yes,,1,1,,,,
92,13,Chicago,"459 N Ogden Ave, Chicago, IL 60642, USA",Example of venue text,https://thirstymag.com/wp-content/uploads/2020/02/national-margarita-day-new-york.jpg,,,41.8905021,-87.6591728,,g&o,yes,,1,1,,,,
93,13,Chicago,"2548 N Southport Ave, Chicago, IL 60614, USA",Example of venue text,https://thirstymag.com/wp-content/uploads/2020/02/national-margarita-day-new-york.jpg,,,41.9284509,-87.6636066,,broken barrel,yes,,1,1,,,,
94,13,Bay Area,"300 Santana Row, San Jose, CA 95128, USA",Example of venue text,https://thirstymag.com/wp-content/uploads/2020/02/national-margarita-day-new-york.jpg,,,37.322865,-121.9476437,,tacolicious,yes,,1,1,,,,
95,13,Bay Area,"632 Emerson St, Palo Alto, CA 94301, USA",Example of venue text,https://thirstymag.com/wp-content/uploads/2020/02/national-margarita-day-new-york.jpg,,,37.4433231,-122.161034,,tacolicious,yes,,1,1,,,,
96,13,Bay Area,"2250 Chestnut St, San Francisco, CA 94123, USA",Example of venue text,https://thirstymag.com/wp-content/uploads/2020/02/national-margarita-day-new-york.jpg,,,37.8004125,-122.4404725,,tacolicious,yes,,1,1,,,,
97,13,Bay Area,"1548 Stockton St, San Francisco, CA 94133, USA",Example of venue text,https://thirstymag.com/wp-content/uploads/2020/02/national-margarita-day-new-york.jpg,,,37.800124,-122.4088995,,tacolicious,yes,,1,1,,,,
98,13,Bay Area,"741 Valencia St, San Francisco, CA 94110, USA",Example of venue text,https://thirstymag.com/wp-content/uploads/2020/02/national-margarita-day-new-york.jpg,,,37.7609623,-122.4213427,,tacolicious,yes,,1,1,,,,
99,13,Bay Area,"52 E Santa Clara St, San Jose, CA 95113, USA",Example of venue text,https://thirstymag.com/wp-content/uploads/2020/02/national-margarita-day-new-york.jpg,,,37.3366009,-121.8892083,,miniboss,yes,,1,1,,,,
100,13,Bay Area,"25 W San Fernando St, San Jose, CA 95113, USA",Example of venue text,https://thirstymag.com/wp-content/uploads/2020/02/national-margarita-day-new-york.jpg,,,37.3342803,-121.8897689,,mezcal restaurant,yes,,1,1,,,,
101,13,Bay Area,"1541 Pacific Ave ste b, Santa Cruz, CA 95060, USA",Example of venue text,https://thirstymag.com/wp-content/uploads/2020/02/national-margarita-day-new-york.jpg,,,36.9760848,-122.0272288,,barceloneta,yes,,1,1,,,,
102,13,Bay Area,"Dolores Street, between 5th and, 6th Ave, Carmel-By-The-Sea, CA 93923, USA",Example of venue text,https://thirstymag.com/wp-content/uploads/2020/02/national-margarita-day-new-york.jpg,,,36.5560319,-121.9230479,,"cultura, carmel-by-the-sea",yes,,1,1,,,,
103,13,Bay Area,"3627 San Pablo Ave, Emeryville, CA 94608, USA",Example of venue text,https://thirstymag.com/wp-content/uploads/2020/02/national-margarita-day-new-york.jpg,,,37.8277434,-122.2790067,,rob ben⊙s,yes,,1,1,,,,
104,13,Bay Area,"72 S 1st St, San Jose, CA 95113, USA",Example of venue text,https://thirstymag.com/wp-content/uploads/2020/02/national-margarita-day-new-york.jpg,,,37.3349854,-121.8894297,,paper plane,yes,,1,1,,,,
105,13,Boston,"1 Bow Market Way #3, Somerville, MA 02143, USA",Example of venue text,https://thirstymag.com/wp-content/uploads/2020/02/national-margarita-day-new-york.jpg,,,42.3811029,-71.0979205,,variety,yes,,1,1,,,,
106,13,Boston,"170 W Broadway, Boston, MA 02127, USA",Example of venue text,https://thirstymag.com/wp-content/uploads/2020/02/national-margarita-day-new-york.jpg,,,42.3405077,-71.0528643,,backyard betty,yes,,1,1,,,,
107,13,Boston,"292 Massachusetts Ave, Cambridge, MA 02139, USA",Example of venue text,https://thirstymag.com/wp-content/uploads/2020/02/national-margarita-day-new-york.jpg,,,42.3620629,-71.0983939,,a4cade,yes,,1,1,,,,
108,13,Boston,"21 Drydock Ave, Boston, MA 02210, USA",Example of venue text,https://thirstymag.com/wp-content/uploads/2020/02/national-margarita-day-new-york.jpg,,,42.3444358,-71.0310592,,chickadee,yes,,1,1,,,,
109,13,Boston,"500 Commonwealth Avenue, Boston, MA 02215, USA",Example of venue text,https://thirstymag.com/wp-content/uploads/2020/02/national-margarita-day-new-york.jpg,,,42.3486282,-71.0952228,,the hawthorne,yes,,1,1,,,,
110,13,Boston,"52 Church St, Cambridge, MA 02138, USA",Example of venue text,https://thirstymag.com/wp-content/uploads/2020/02/national-margarita-day-new-york.jpg,,,42.3739749,-71.1205932,,the sinclair,yes,,1,1,,,,
111,13,Boston,"175 Rivers Edge Dr, Medford, MA 02155, USA",Example of venue text,https://thirstymag.com/wp-content/uploads/2020/02/national-margarita-day-new-york.jpg,,,42.4099337,-71.0754948,,the porch juke joint,yes,,1,1,,,,
112,13,Boston,"69 Bromfield St, Boston, MA 02108, USA",Example of venue text,https://thirstymag.com/wp-content/uploads/2020/02/national-margarita-day-new-york.jpg,,,42.3570841,-71.0608912,,silvertone,yes,,1,1,,,,
113,13,New York,"514 Union St, Brooklyn, NY 11215, USA",Example of venue text,https://thirstymag.com/wp-content/uploads/2020/02/national-margarita-day-new-york.jpg,,,40.678507,-73.98701,,royal palms,yes,,1,1,,,,
114,13,New York,"29 E 2nd St, New York, NY 10003, USA",Example of venue text,https://thirstymag.com/wp-content/uploads/2020/02/national-margarita-day-new-york.jpg,,,40.7249134,-73.9907851,,rosies,yes,,1,1,,,,
115,13,New York,"1 W 3rd St, New York, NY 10012, USA",Example of venue text,https://thirstymag.com/wp-content/uploads/2020/02/national-margarita-day-new-york.jpg,,,40.7280068,-73.9949234,,west 3rd common ,yes,,1,1,,,,
116,13,New York,"59 Grand St, New York, NY 10013, USA",Example of venue text,https://thirstymag.com/wp-content/uploads/2020/02/national-margarita-day-new-york.jpg,,,40.722135,-74.0034907,,lucky strike,yes,,1,1,,,,
117,13,New York,"195 Bedford Ave, Brooklyn, NY 11211, USA",Example of venue text,https://thirstymag.com/wp-content/uploads/2020/02/national-margarita-day-new-york.jpg,,,40.7173431,-73.9580225,,vera cruz,yes,,1,1,,,,
118,13,New York,"510 Hudson St, New York, NY 10014, USA",Example of venue text,https://thirstymag.com/wp-content/uploads/2020/02/national-margarita-day-new-york.jpg,,,40.7334379,-74.0061358,,employee's only,yes,,1,1,,,,
119,13,New York,"371 Broome St, New York, NY 10013, USA",Example of venue text,https://thirstymag.com/wp-content/uploads/2020/02/national-margarita-day-new-york.jpg,,,40.720053,-73.9962548,,shoo shoo,yes,,1,1,,,,
120,13,New York,"45 W 35th St, New York, NY 10001, USA",Example of venue text,https://thirstymag.com/wp-content/uploads/2020/02/national-margarita-day-new-york.jpg,,,40.750143,-73.9859914,,lot 15 at kixby hotel,yes,,1,1,,,,
121,13,New York,"444 Park Ave S, New York, NY 10016, USA",Example of venue text,https://thirstymag.com/wp-content/uploads/2020/02/national-margarita-day-new-york.jpg,,,40.7448422,-73.9833321,,cleo,yes,,1,1,,,,
122,13,New York,"127 Loisaida Ave, New York, NY 10009, USA",Example of venue text,https://thirstymag.com/wp-content/uploads/2020/02/national-margarita-day-new-york.jpg,,,40.7248912,-73.9785797,,loverboy,yes,,1,1,,,,
123,13,Texas,"4216 Oak Lawn Ave, Dallas, TX 75219, USA",Example of venue text,https://thirstymag.com/wp-content/uploads/2020/02/national-margarita-day-new-york.jpg,,,32.8201727,-96.8019635,,tulum,yes,,1,1,,,,
124,13,Texas,"3858 Oak Lawn Ave #470, Dallas, TX 75219, USA",Example of venue text,https://thirstymag.com/wp-content/uploads/2020/02/national-margarita-day-new-york.jpg,,,32.8147309,-96.8008653,,jalisco norte,yes,,1,1,,,,
125,13,Texas,"2912 N Henderson Ave, Dallas, TX 75206, USA",Example of venue text,https://thirstymag.com/wp-content/uploads/2020/02/national-margarita-day-new-york.jpg,,,32.8206309,-96.7846427,,the porch,yes,,1,1,,,,
126,13,Texas,"1617 Hi Line Dr #395, Dallas, TX 75207, USA",Example of venue text,https://thirstymag.com/wp-content/uploads/2020/02/national-margarita-day-new-york.jpg,,,32.7952162,-96.8184364,,sassetta,yes,,1,1,,,,